GLOBALSTAR M045         
1 25676U 99019A   24275.46315270 -.00000017  00000+0  67854-3 0  9993
2 25676  51.9987 322.6831 0000705  97.7852 275.8163 12.27045791161639
GLOBALSTAR M019         
1 25677U 99019B   24275.89501413 -.00000160  00000+0 -73011-3 0  9999
2 25677  51.9872  73.6371 0001706 132.6855  22.5429 12.13862924153968
GLOBALSTAR M044         
1 25678U 99019C   24275.63137699  .00000015  00000+0  13703-2 0  9991
2 25678  51.9999 353.3891 0005990 258.9045 248.1558 11.90240796140535
GLOBALSTAR M042         
1 25679U 99019D   24275.43868060 -.00000079  00000+0  11995-3 0  9996
2 25679  52.0015  61.3972 0003692 118.0339 280.0721 12.22068915153620
GLOBALSTAR M025         
1 25770U 99031A   24275.61735399 -.00000081  00000+0 -41370-3 0  9994
2 25770  51.9844  38.2627 0002126  82.9438 290.3043 11.22553783452679
GLOBALSTAR M049         
1 25771U 99031B   24275.48900686 -.00000001  00000+0  22151-2 0  9999
2 25771  51.9879  60.3207 0002408 310.3139  49.7447 11.12109729 88649
GLOBALSTAR M047         
1 25772U 99031C   24275.49586370 -.00000049  00000+0  57036-3 0  9994
2 25772  51.9820  81.9909 0016406 175.2805 184.8158 11.31923508441817
GLOBALSTAR M052         
1 25773U 99031D   24275.87680793 -.00000052  00000+0  47121-3 0  9999
2 25773  51.9848 171.7557 0003194  91.5248 347.2840 11.15054353107521
